{
  "links" : {
    "next" : "https://api.nasa.gov/neo/rest/v1/feed?start_date=2014-07-09&end_date=2014-07-09&detailed=true&api_key=t0TVs3DtDT2H8Oy2Zy8m2eVrNsAVKAexjcZXUckd",
    "prev" : "https://api.nasa.gov/neo/rest/v1/feed?start_date=2014-07-07&end_date=2014-07-07&detailed=true&api_key=t0TVs3DtDT2H8Oy2Zy8m2eVrNsAVKAexjcZXUckd",
    "self" : "https://api.nasa.gov/neo/rest/v1/feed?start_date=2014-07-08&end_date=2014-07-08&detailed=true&api_key=t0TVs3DtDT2H8Oy2Zy8m2eVrNsAVKAexjcZXUckd"
  },
  "element_count" : 7,
  "near_earth_objects" : {
    "2014-07-08" : [ {
      "links" : {
        "self" : "https://api.nasa.gov/neo/rest/v1/neo/3766185?api_key=t0TVs3DtDT2H8Oy2Zy8m2eVrNsAVKAexjcZXUckd"
      },
      "neo_reference_id" : "3766185",
      "name" : "(2016 YT8)",
      "nasa_jpl_url" : "http://ssd.jpl.nasa.gov/sbdb.cgi?sstr=3766185",
      "absolute_magnitude_h" : 20.4,
      "estimated_diameter" : {
        "kilometers" : {
          "estimated_diameter_min" : 0.2210828104,
          "estimated_diameter_max" : 0.4943561926
        },
        "meters" : {
          "estimated_diameter_min" : 221.0828103591,
          "estimated_diameter_max" : 494.3561926196
        },
        "miles" : {
          "estimated_diameter_min" : 0.137374447,
          "estimated_diameter_max" : 0.3071786018
        },
        "feet" : {
          "estimated_diameter_min" : 725.3373275385,
          "estimated_diameter_max" : 1621.9035709942
        }
      },
      "is_potentially_hazardous_asteroid" : true,
      "close_approach_data" : [ {
        "close_approach_date" : "2014-07-08",
        "epoch_date_close_approach" : 1404802800000,
        "relative_velocity" : {
          "kilometers_per_second" : "25.8273211212",
          "kilometers_per_hour" : "92978.3560364726",
          "miles_per_hour" : "57773.1346161071"
        },
        "miss_distance" : {
          "astronomical" : "0.3162265618",
          "lunar" : "123.0121383667",
          "kilometers" : "47306824",
          "miles" : "29395096"
        },
        "orbiting_body" : "Earth"
      } ],
      "orbital_data" : {
        "orbit_id" : "21",
        "orbit_determination_date" : "2017-07-04 06:19:29",
        "orbit_uncertainty" : "5",
        "minimum_orbit_intersection" : ".0345777",
        "jupiter_tisserand_invariant" : "3.560",
        "epoch_osculation" : "2458000.5",
        "eccentricity" : ".6266361830806472",
        "semi_major_axis" : "1.996109012242551",
        "inclination" : "9.099459740631136",
        "ascending_node_longitude" : "75.57212659427833",
        "orbital_period" : "1030.089143602371",
        "perihelion_distance" : ".7452748797979979",
        "perihelion_argument" : "121.1006073401724",
        "aphelion_distance" : "3.246943144687103",
        "perihelion_time" : "2457831.669839373932",
        "mean_anomaly" : "59.00349324412046",
        "mean_motion" : ".3494843162224074",
        "equinox" : "J2000"
      }
    } ]
  }
}